{
  "type": "FeatureCollection",
  "features": [
    {
      "type": "Feature",
      "properties": {
        "norad_id": 66505,
        "name": "STARLINK-34766",
        "group": "last-30-days",
        "lat": 8.425349902071414,
        "lon": -5.949998970778825,
        "alt_km": 346.15126553701884,
        "timestamp": "2025-12-02T21:34:00.042595+00:00",
        "meta_object_name": "STARLINK-34766",
        "meta_object_id": "2025-263W",
        "meta_epoch": "2025-12-02T12:00:05.998752",
        "meta_mean_motion": 15.75424339,
        "meta_eccentricity": 0.0001595,
        "meta_inclination": 42.9986,
        "meta_ra_of_asc_node": 185.6139,
        "meta_arg_of_pericenter": 258.2195,
        "meta_mean_anomaly": 167.2599,
        "meta_ephemeris_type": 0,
        "meta_classification_type": "U",
        "meta_norad_cat_id": 66505,
        "meta_element_set_no": 999,
        "meta_rev_at_epoch": 399,
        "meta_bstar": -0.012148,
        "meta_mean_motion_dot": -0.01680173,
        "meta_mean_motion_ddot": 0,
        "tle_line1": "1 66505U 25263W   25336.50006943 -.01680173  00000+0 -12148-1 0  9990",
        "tle_line2": "2 66505  42.9986 185.6139 0001595 258.2195 167.2599 15.75424339  3990"
      },
      "geometry": {
        "type": "Point",
        "coordinates": [
          -5.949998970778825,
          8.425349902071414
        ]
      }
    },
    {
      "type": "Feature",
      "properties": {
        "norad_id": 66506,
        "name": "STARLINK-34765",
        "group": "last-30-days",
        "lat": 7.129773485541716,
        "lon": -4.5220785820635,
        "alt_km": 346.51744872718064,
        "timestamp": "2025-12-02T21:34:00.042606+00:00",
        "meta_object_name": "STARLINK-34765",
        "meta_object_id": "2025-263X",
        "meta_epoch": "2025-12-02T12:00:05.998752",
        "meta_mean_motion": 15.75467408,
        "meta_eccentricity": 0.0001575,
        "meta_inclination": 42.9984,
        "meta_ra_of_asc_node": 185.61,
        "meta_arg_of_pericenter": 265.8336,
        "meta_mean_anomaly": 161.5445,
        "meta_ephemeris_type": 0,
        "meta_classification_type": "U",
        "meta_norad_cat_id": 66506,
        "meta_element_set_no": 999,
        "meta_rev_at_epoch": 399,
        "meta_bstar": -0.012598,
        "meta_mean_motion_dot": -0.01737795,
        "meta_mean_motion_ddot": 0,
        "tle_line1": "1 66506U 25263X   25336.50006943 -.01737795  00000+0 -12598-1 0  9993",
        "tle_line2": "2 66506  42.9984 185.6100 0001575 265.8336 161.5445 15.75467408  3997"
      },
      "geometry": {
        "type": "Point",
        "coordinates": [
          -4.5220785820635,
          7.129773485541716
        ]
      }
    },
    {
      "type": "Feature",
      "properties": {
        "norad_id": 66507,
        "name": "STARLINK-34767",
        "group": "last-30-days",
        "lat": 4.532795590652739,
        "lon": -1.6981714294104915,
        "alt_km": 347.01823772749594,
        "timestamp": "2025-12-02T21:34:00.042616+00:00",
        "meta_object_name": "STARLINK-34767",
        "meta_object_id": "2025-263Y",
        "meta_epoch": "2025-12-02T12:00:05.998752",
        "meta_mean_motion": 15.75407582,
        "meta_eccentricity": 0.0001422,
        "meta_inclination": 42.9983,
        "meta_ra_of_asc_node": 185.5998,
        "meta_arg_of_pericenter": 278.1536,
        "meta_mean_anomaly": 153.0815,
        "meta_ephemeris_type": 0,
        "meta_classification_type": "U",
        "meta_norad_cat_id": 66507,
        "meta_element_set_no": 999,
        "meta_rev_at_epoch": 399,
        "meta_bstar": -0.011953,
        "meta_mean_motion_dot": -0.01654998,
        "meta_mean_motion_ddot": 0,
        "tle_line1": "1 66507U 25263Y   25336.50006943 -.01654998  00000+0 -11953-1 0  9991",
        "tle_line2": "2 66507  42.9983 185.5998 0001422 278.1536 153.0815 15.75407582  3995"
      },
      "geometry": {
        "type": "Point",
        "coordinates": [
          -1.6981714294104915,
          4.532795590652739
        ]
      }
    },
    {
      "type": "Feature",
      "properties": {
        "norad_id": 66508,
        "name": "STARLINK-35608",
        "group": "last-30-days",
        "lat": 0.6187076169326037,
        "lon": 2.504318205412841,
        "alt_km": 347.36336514722734,
        "timestamp": "2025-12-02T21:34:00.042626+00:00",
        "meta_object_name": "STARLINK-35608",
        "meta_object_id": "2025-263Z",
        "meta_epoch": "2025-12-02T12:00:05.998752",
        "meta_mean_motion": 15.75399932,
        "meta_eccentricity": 0.0001597,
        "meta_inclination": 42.9982,
        "meta_ra_of_asc_node": 185.5856,
        "meta_arg_of_pericenter": 274.9635,
        "meta_mean_anomaly": 162.0233,
        "meta_ephemeris_type": 0,
        "meta_classification_type": "U",
        "meta_norad_cat_id": 66508,
        "meta_element_set_no": 999,
        "meta_rev_at_epoch": 399,
        "meta_bstar": -0.011835,
        "meta_mean_motion_dot": -0.01640185,
        "meta_mean_motion_ddot": 0,
        "tle_line1": "1 66508U 25263Z   25336.50006943 -.01640185  00000+0 -11835-1 0  9994",
        "tle_line2": "2 66508  42.9982 185.5856 0001597 274.9635 162.0233 15.75399932  3998"
      },
      "geometry": {
        "type": "Point",
        "coordinates": [
          2.504318205412841,
          0.6187076169326037
        ]
      }
    },
    {
      "type": "Feature",
      "properties": {
        "norad_id": 66509,
        "name": "STARLINK-35598",
        "group": "last-30-days",
        "lat": -4.606159295198851,
        "lon": 8.107678473974236,
        "alt_km": 347.83457631467536,
        "timestamp": "2025-12-02T21:34:00.042638+00:00",
        "meta_object_name": "STARLINK-35598",
        "meta_object_id": "2025-263AA",
        "meta_epoch": "2025-12-02T12:00:05.998752",
        "meta_mean_motion": 15.75397257,
        "meta_eccentricity": 0.0001262,
        "meta_inclination": 42.9981,
        "meta_ra_of_asc_node": 185.5646,
        "meta_arg_of_pericenter": 274.3562,
        "meta_mean_anomaly": 170.3016,
        "meta_ephemeris_type": 0,
        "meta_classification_type": "U",
        "meta_norad_cat_id": 66509,
        "meta_element_set_no": 999,
        "meta_rev_at_epoch": 399,
        "meta_bstar": -0.011817,
        "meta_mean_motion_dot": -0.01637573,
        "meta_mean_motion_ddot": 0,
        "tle_line1": "1 66509U 25263AA  25336.50006943 -.01637573  00000+0 -11817-1 0  9992",
        "tle_line2": "2 66509  42.9981 185.5646 0001262 274.3562 170.3016 15.75397257  3996"
      },
      "geometry": {
        "type": "Point",
        "coordinates": [
          8.107678473974236,
          -4.606159295198851
        ]
      }
    },
    {
      "type": "Feature",
      "properties": {
        "norad_id": 66510,
        "name": "STARLINK-35600",
        "group": "last-30-days",
        "lat": -0.6916720958107154,
        "lon": 3.9046344797437866,
        "alt_km": 347.1414881036035,
        "timestamp": "2025-12-02T21:34:00.042649+00:00",
        "meta_object_name": "STARLINK-35600",
        "meta_object_id": "2025-263AB",
        "meta_epoch": "2025-12-02T12:00:05.998752",
        "meta_mean_motion": 15.75425171,
        "meta_eccentricity": 0.0001483,
        "meta_inclination": 42.9983,
        "meta_ra_of_asc_node": 185.5795,
        "meta_arg_of_pericenter": 258.794,
        "meta_mean_anomaly": 180.1088,
        "meta_ephemeris_type": 0,
        "meta_classification_type": "U",
        "meta_norad_cat_id": 66510,
        "meta_element_set_no": 999,
        "meta_rev_at_epoch": 399,
        "meta_bstar": -0.012192,
        "meta_mean_motion_dot": -0.01685485,
        "meta_mean_motion_ddot": 0,
        "tle_line1": "1 66510U 25263AB  25336.50006943 -.01685485  00000+0 -12192-1 0  9996",
        "tle_line2": "2 66510  42.9983 185.5795 0001483 258.7940 180.1088 15.75425171  3991"
      },
      "geometry": {
        "type": "Point",
        "coordinates": [
          3.9046344797437866,
          -0.6916720958107154
        ]
      }
    },
    {
      "type": "Feature",
      "properties": {
        "norad_id": 66511,
        "name": "STARLINK-35444",
        "group": "last-30-days",
        "lat": -3.3017154317736246,
        "lon": 6.702722808045776,
        "alt_km": 347.6109885412343,
        "timestamp": "2025-12-02T21:34:00.042661+00:00",
        "meta_object_name": "STARLINK-35444",
        "meta_object_id": "2025-263AC",
        "meta_epoch": "2025-12-02T12:00:05.998752",
        "meta_mean_motion": 15.75397594,
        "meta_eccentricity": 0.0001431,
        "meta_inclination": 42.9983,
        "meta_ra_of_asc_node": 185.5703,
        "meta_arg_of_pericenter": 270.169,
        "meta_mean_anomaly": 172.5697,
        "meta_ephemeris_type": 0,
        "meta_classification_type": "U",
        "meta_norad_cat_id": 66511,
        "meta_element_set_no": 999,
        "meta_rev_at_epoch": 399,
        "meta_bstar": -0.011797,
        "meta_mean_motion_dot": -0.01635226,
        "meta_mean_motion_ddot": 0,
        "tle_line1": "1 66511U 25263AC  25336.50006943 -.01635226  00000+0 -11797-1 0  9995",
        "tle_line2": "2 66511  42.9983 185.5703 0001431 270.1690 172.5697 15.75397594  3992"
      },
      "geometry": {
        "type": "Point",
        "coordinates": [
          6.702722808045776,
          -3.3017154317736246
        ]
      }
    }
  ]
}